STARLINK-31208          
1 59037U 24038Q   26067.91396105 -.00000926  00000+0 -24145-4 0  9994
2 59037  43.0025  31.8631 0001169 253.0933 106.9790 15.27576868114692
FOSSASAT-2E20 (TAT-O)   
1 63003U 25009DN  26068.70855016  .00016337  00000+0  61863-3 0  9998
2 63003  97.3231 146.2859 0002189 347.5575  12.5610 15.26991080121314
